[{"OBJECT_NAME":"STARLINK-5853","OBJECT_ID":"2023-083F","EPOCH":"2026-03-09T01:41:13.170048","MEAN_MOTION":15.02533583,"ECCENTRICITY":0.00011351,"INCLINATION":43.0035,"RA_OF_ASC_NODE":85.4505,"ARG_OF_PERICENTER":261.2397,"MEAN_ANOMALY":98.8316,"EPHEMERIS_TYPE":0,"CLASSIFICATION_TYPE":"U","NORAD_CAT_ID":56881,"ELEMENT_SET_NO":999,"REV_AT_EPOCH":15157,"BSTAR":1.622191e-5,"MEAN_MOTION_DOT":1.6e-7,"MEAN_MOTION_DDOT":0},{"OBJECT_NAME":"COSMOS 2251 DEB","OBJECT_ID":"1993-036BSM","EPOCH":"2026-03-05T18:25:12.242784","MEAN_MOTION":14.77934954,"ECCENTRICITY":0.01163021,"INCLINATION":73.9376,"RA_OF_ASC_NODE":193.5346,"ARG_OF_PERICENTER":49.2659,"MEAN_ANOMALY":311.8542,"EPHEMERIS_TYPE":0,"CLASSIFICATION_TYPE":"U","NORAD_CAT_ID":38197,"ELEMENT_SET_NO":999,"REV_AT_EPOCH":86980,"BSTAR":0.0037051809,"MEAN_MOTION_DOT":0.00029983,"MEAN_MOTION_DDOT":0}]
